OBJECT_NAME,OBJECT_ID,EPOCH,MEAN_MOTION,ECCENTRICITY,INCLINATION,RA_OF_ASC_NODE,ARG_OF_PERICENTER,MEAN_ANOMALY,EPHEMERIS_TYPE,CLASSIFICATION_TYPE,NORAD_CAT_ID,ELEMENT_SET_NO,REV_AT_EPOCH,BSTAR,MEAN_MOTION_DOT,MEAN_MOTION_DDOT
STARLINK-30236,2023-096L,2026-07-20T06:32:31.229952,15.27578685,.00011435,43.0007,194.4596,274.8217,85.2504,0,U,57300,999,16793,.42815791E-4,.916E-5,0
STARLINK-30201,2023-096M,2026-07-20T00:30:44.800704,15.27563665,.00008321,42.9974,196.0134,274.1777,85.8980,0,U,57301,999,16695,-.10586459E-3,-.3172E-4,0
STARLINK-30233,2023-096N,2026-07-19T21:13:07.822848,15.27576678,.00012538,43.0004,196.6893,274.6608,85.4101,0,U,57302,999,16693,.25141152E-4,.43E-5,0
STARLINK-30184,2023-096W,2026-07-20T05:55:21.845568,15.27580972,.00014115,43.0020,165.8542,265.6094,94.4596,0,U,57310,999,16732,.5860283E-5,-.101E-5,0
STARLINK-6290,2023-099A,2026-07-20T02:53:04.727904,15.27579949,.00027201,43.0039,224.1922,297.1036,62.9538,0,U,57328,999,16724,.13741426E-4,.115E-5,0
STARLINK-6138,2023-099B,2026-07-20T03:30:07.184736,15.27572086,.00013742,43.0002,224.3832,280.1928,79.8769,0,U,57329,999,16633,.10280937E-4,.21E-6,0
STARLINK-6212,2023-099C,2026-07-19T09:54:02.648160,15.27562536,.00016895,43.0029,228.3446,273.7974,86.2685,0,U,57330,999,16622,-.26381548E-4,-.988E-5,0
STARLINK-6234,2023-099D,2026-07-20T03:15:17.523072,15.27577961,.00016428,43.0031,224.3110,277.1488,82.9177,0,U,57331,999,16633,.30662297E-4,.582E-5,0
STARLINK-5831,2023-099E,2026-07-19T10:03:16.004736,15.27579057,.0001402,43.0024,228.3903,267.4839,92.5853,0,U,57332,999,16622,-.46793258E-4,-.155E-4,0
STARLINK-5585,2023-099F,2026-07-19T02:18:02.482848,15.27581347,.00011385,42.9999,230.2654,288.0122,72.0606,0,U,57333,999,16617,.13118787E-4,.99E-6,0
STARLINK-5589,2023-099G,2026-07-20T02:01:29.251776,15.27575748,.0001272,43.0001,224.7752,269.7404,90.3302,0,U,57334,999,16632,.13144201E-4,.1E-5,0
STARLINK-6316,2023-099H,2026-07-20T02:28:06.357504,15.27579359,.00011991,43.0023,221.5141,274.9600,85.1115,0,U,57335,999,16636,.42529356E-4,.908E-5,0
STARLINK-6320,2023-099J,2026-07-19T10:37:18.270912,15.27576392,.00010569,43.0013,225.1361,286.9269,73.1467,0,U,57336,999,16626,.16789483E-4,.2E-5,0
STARLINK-6322,2023-099K,2026-07-20T02:12:35.330112,15.27575976,.0001319,43.0006,224.8331,269.7765,90.2935,0,U,57337,999,16632,.7983645E-5,-.42E-6,0
STARLINK-6374,2023-099L,2026-07-20T02:16:17.278752,15.27575733,.00013061,43.0008,224.8522,269.9651,90.1051,0,U,57338,999,16632,.9327315E-5,-.5E-7,0
STARLINK-6332,2023-099M,2026-07-19T10:25:28.439616,15.27576786,.00011556,43.0003,228.4978,270.7718,89.3001,0,U,57339,999,16622,.7967258E-5,-.43E-6,0
STARLINK-6321,2023-099N,2026-07-20T02:38:29.858784,15.27574403,.00009876,43.0026,224.9640,330.9155,29.1642,0,U,57340,999,16632,.12897642E-4,.93E-6,0
STARLINK-6377,2023-099P,2026-07-20T03:21:58.897728,15.27577041,.00020579,43.0019,227.7497,282.8475,77.2147,0,U,57341,999,16629,.39882417E-4,.835E-5,0
STARLINK-6375,2023-099Q,2026-07-19T08:48:19.586304,15.27574467,.00012452,43.0002,225.4442,271.2481,88.8228,0,U,57342,999,16625,-.1621977E-5,-.307E-5,0
STARLINK-6379,2023-099R,2026-07-20T02:27:23.501376,15.27574798,.00011124,43.0009,224.9089,270.5866,89.4859,0,U,57343,999,16632,-.2332452E-5,-.326E-5,0
STARLINK-6380,2023-099S,2026-07-20T02:58:38.476416,15.27575366,.00009866,43.0035,224.2097,19.8895,340.1995,0,U,57344,999,16633,.29729632E-4,.556E-5,0
STARLINK-6373,2023-099T,2026-07-20T03:18:16.907616,15.27576394,.00018749,43.0021,227.7258,278.5741,81.4898,0,U,57345,999,16629,.7817764E-5,-.47E-6,0
STARLINK-6359,2023-099U,2026-07-20T02:29:57.167232,15.27574720,.00011335,43.0041,221.5147,297.1035,62.9701,0,U,57346,999,16636,.1811872E-5,-.212E-5,0
STARLINK-6378,2023-099V,2026-07-20T03:27:31.847040,15.27562312,.00014189,43.0021,227.7789,269.4601,90.6088,0,U,57347,999,16629,.51400416E-4,.1152E-4,0
STARLINK-6372,2023-099W,2026-07-20T02:13:18.217344,15.27569278,.00012626,43.0004,221.4270,285.8417,74.2296,0,U,57348,999,16636,.20685161E-4,.307E-5,0
STARLINK-6376,2023-099X,2026-07-19T08:24:16.499808,15.27575418,.00014639,43.0013,225.3183,268.6260,91.4424,0,U,57349,999,16697,.37541781E-4,.771E-5,0
STARLINK-6362,2023-099Y,2026-07-19T10:03:29.425248,15.27575540,.00012041,43.0010,217.9163,270.6223,89.4491,0,U,57350,999,16633,.9233238E-5,-.8E-7,0
STARLINK-6331,2023-099Z,2026-07-20T01:17:47.417856,15.27579406,.00015677,43.0035,221.1429,274.9937,85.0736,0,U,57351,999,16636,.33740833E-4,.666E-5,0
STARLINK-6297,2023-099AA,2026-07-19T17:45:01.092672,15.27577156,.0001086,43.0002,216.0191,270.9053,89.1674,0,U,57352,999,16639,.25182457E-4,.431E-5,0
STARLINK-6324,2023-099AB,2026-07-19T17:58:27.774048,15.27578605,.00013252,43.0013,223.1490,263.1543,96.9158,0,U,57353,999,16631,-.61609186E-4,-.1957E-4,0
STARLINK-6293,2023-099AC,2026-07-19T08:16:22.791936,15.27575164,.00009798,43.0005,218.2112,274.3839,85.6901,0,U,57354,999,16633,-.178129E-6,-.267E-5,0
STARLINK-6276,2023-099AD,2026-07-20T02:05:24.567360,15.27574837,.00014362,43.0037,214.3257,283.9901,76.0791,0,U,57355,999,16644,.6496465E-5,-.83E-6,0
STARLINK-6355,2023-099AE,2026-07-19T02:20:06.701856,15.27573259,.00009731,43.0017,219.7948,305.5756,54.5005,0,U,57356,999,16629,-.56742E-7,-.264E-5,0
STARLINK-5600,2023-099AF,2026-07-20T01:09:53.825760,15.27587421,.00013355,43.0023,214.0376,286.8122,73.2583,0,U,57357,999,16644,.17481192E-4,.219E-5,0
STARLINK-6299,2023-099AG,2026-07-19T02:42:06.114528,15.27575379,.00017434,43.0026,219.0624,279.3072,80.7582,0,U,57358,999,16704,.27079254E-4,.483E-5,0
STARLINK-6347,2023-099AH,2026-07-20T01:39:31.826304,15.27580414,.00010954,43.0005,214.1906,267.1531,92.9195,0,U,57359,999,16644,.29045179E-4,.537E-5,0
STARLINK-6348,2023-099AJ,2026-07-20T02:25:33.475296,15.27584096,.00018714,43.0029,213.5756,283.4789,76.5854,0,U,57360,999,16645,.53039589E-4,.1198E-4,0
STARLINK-6340,2023-099AK,2026-07-19T08:47:50.431488,15.27572295,.00011514,43.0021,218.3721,258.1182,101.9541,0,U,57361,999,16633,.7269787E-5,-.62E-6,0
STARLINK-6343,2023-099AL,2026-07-20T07:13:34.300416,15.27582196,.00017346,43.0030,212.4933,275.8185,84.2469,0,U,57362,999,16647,.13809522E-4,.118E-5,0
STARLINK-6356,2023-099AM,2026-07-19T10:38:26.443968,15.27574109,.00018183,43.0028,217.2351,287.5649,72.5004,0,U,57363,999,16635,.14632361E-4,.14E-5,0
STARLINK-6338,2023-099AN,2026-07-20T02:36:40.017600,15.27571772,.00017118,43.0023,213.6278,284.2471,75.8191,0,U,57364,999,16644,.23769225E-4,.392E-5,0
STARLINK-5007,2023-099AP,2026-07-20T07:45:01.479456,15.27577373,.00013455,43.0008,212.6450,284.1027,75.9675,0,U,57365,999,16648,.16887458E-4,.203E-5,0
STARLINK-6174,2023-099AQ,2026-07-20T02:57:00.321696,15.27574845,.00012386,43.0011,213.7298,271.3946,88.6764,0,U,57366,999,16645,.940189E-5,-.3E-7,0
STARLINK-6215,2023-099AR,2026-07-20T00:36:10.466496,15.27573941,.00011996,43.0020,195.7219,270.1599,89.9115,0,U,57367,999,16740,-.81467E-7,-.264E-5,0
STARLINK-6218,2023-099AS,2026-07-20T07:50:34.729440,15.27576305,.00010663,43.0002,212.6794,263.8830,96.1900,0,U,57368,999,16648,.6245245E-5,-.9E-6,0
STARLINK-6168,2023-099AT,2026-07-20T01:38:13.259328,15.30275539,.0001129,43.0026,213.3274,101.5594,258.5385,0,U,57369,999,16645,.63246795E-3,.18686E-3,0
STARLINK-5353,2023-099AU,2026-07-19T02:10:51.616416,15.27585823,.00009083,43.0009,219.7409,292.1017,67.9739,0,U,57370,999,16629,-.9305728E-5,-.518E-5,0
STARLINK-6032,2023-099AV,2026-07-20T07:33:55.866816,15.27580884,.00011028,43.0009,212.5951,282.9254,77.1474,0,U,57371,999,16648,-.20688405E-4,-.831E-5,0
STARLINK-5975,2023-099AW,2026-07-20T01:59:51.266400,15.27573708,.00012704,43.0034,214.2780,284.7543,75.3168,0,U,57372,999,16644,.16192866E-4,.183E-5,0
STARLINK-6370,2023-099AX,2026-07-19T08:34:53.011200,15.27579175,.00015024,43.0026,218.2970,292.6185,67.4508,0,U,57373,999,16633,-.35698757E-4,-.1244E-4,0
STARLINK-6369,2023-099AY,2026-07-20T00:14:10.942368,15.27575183,.0001097,43.0013,196.4813,275.4277,84.6450,0,U,57374,999,16664,.10723426E-4,.33E-6,0
STARLINK-6363,2023-099AZ,2026-07-19T17:57:58.160448,15.27575973,.00010598,43.0014,216.0750,276.8376,83.2355,0,U,57375,999,16639,-.8055E-6,-.284E-5,0
STARLINK-6367,2023-099BA,2026-07-20T07:32:45.760128,15.27584675,.0002211,42.9982,209.1772,271.1012,88.9586,0,U,57376,999,16652,-.15059168E-3,-.4405E-4,0
STARLINK-6358,2023-099BB,2026-07-19T08:41:36.320352,15.27574585,.00012293,43.0004,221.7634,278.5012,81.5700,0,U,57377,999,16628,.37113357E-4,.759E-5,0
STARLINK-6364,2023-099BC,2026-07-20T00:14:11.959296,15.27576426,.00012795,43.0022,185.1838,278.3728,81.6978,0,U,57378,999,16751,.26514209E-4,.467E-5,0
STARLINK-6361,2023-099BD,2026-07-20T01:10:36.458112,15.27574476,.00010945,43.0017,210.6273,274.9220,85.1507,0,U,57379,999,16648,.12050677E-4,.7E-6,0
STARLINK-6366,2023-099BE,2026-07-20T00:19:45.201504,15.27586084,.00014865,43.0031,185.2062,287.5441,72.5248,0,U,57380,999,16750,.14222174E-4,.129E-5,0
STARLINK-6371,2023-099BF,2026-07-20T01:42:46.401696,15.27576309,.00010351,43.0018,196.0708,265.6355,94.4378,0,U,57381,999,16739,.8924752E-5,-.16E-6,0
STARLINK-30240,2023-102A,2026-07-19T08:07:35.582592,15.27585542,.00022918,43.0039,225.1216,271.6275,88.4314,0,U,57404,999,16637,.37706374E-4,.775E-5,0
STARLINK-30195,2023-102C,2026-07-20T06:00:04.000320,15.70588526,.00019654,42.9994,220.2749,278.5930,237.8961,0,U,57406,999,583,.75571736E-2,.1071805E-1,0
STARLINK-30207,2023-102D,2026-07-19T17:42:31.768416,15.27574798,.00015379,43.0035,208.3341,272.4340,87.6336,0,U,57407,999,16661,.5393237E-5,-.114E-5,0
STARLINK-30205,2023-102E,2026-07-20T01:53:54.210624,15.27710150,.00009884,43.0029,221.2320,280.3293,79.7447,0,U,57408,999,16648,.4523818E-5,-.137E-5,0
STARLINK-30222,2023-102F,2026-07-19T18:53:43.522656,15.27582905,.00010838,43.0024,222.4726,273.4266,86.6461,0,U,57409,999,16644,.63293686E-4,.148E-4,0
STARLINK-30172,2023-102G,2026-07-20T02:37:20.222112,15.27565257,.00015754,43.0033,221.4355,284.8110,75.2567,0,U,57410,999,16648,.52305369E-4,.1177E-4,0
